0 IRIDIUM 33 DEB
1 33777U 97051Q   13282.54351109  .00001211  00000-0  39939-3 0  3639
2 33777 086.3858 127.0003 0008519 186.9349 173.1732 14.37340366244071
0 IRIDIUM 33 DEB
1 33777U 97051Q   13283.72700349  .00001260  00000-0  41570-3 0  3643
2 33777 086.3856 126.5019 0008655 182.9346 177.1802 14.37343462244245
0 IRIDIUM 33 DEB
1 33777U 97051Q   13286.09397981  .00001266  00000-0  41769-3 0  3668
2 33777 086.3852 125.5049 0008974 175.4560 184.6721 14.37348415244585
0 IRIDIUM 33 DEB
1 33777U 97051Q   13287.48631426  .00001428  00000-0  47206-3 0  3670
2 33777 086.3850 124.9184 0009156 171.3047 188.8311 14.37351916244787
0 IRIDIUM 33 DEB
1 33777U 97051Q   13288.80902716  .00001754  00000-0  58102-3 0  3680
2 33777 086.3851 124.3610 0009313 167.3970 192.7462 14.37357716244977
0 IRIDIUM 33 DEB
1 33777U 97051Q   13290.13173644  .00001622  00000-0  53685-3 0  3695
2 33777 086.3850 123.8036 0009464 163.3679 196.7831 14.37362951245164
0 IRIDIUM 33 DEB
1 33777U 97051Q   13291.31520859  .00001652  00000-0  54674-3 0  3704
2 33777 086.3851 123.3049 0009585 159.7681 200.3899 14.37366223245331
0 IRIDIUM 33 DEB
1 33777U 97051Q   13292.49867789  .00001737  00000-0  57528-3 0  3716
2 33777 086.3852 122.8062 0009695 156.2830 203.8817 14.37369730245504
0 IRIDIUM 33 DEB
1 33777U 97051Q   13293.82137476  .00001907  00000-0  63209-3 0  3720
2 33777 086.3853 122.2489 0009824 152.6220 207.5497 14.37373622245699
0 IRIDIUM 33 DEB
1 33777U 97051Q   13295.07445327  .00001964  00000-0  65108-3 0  3730
2 33777 086.3854 121.7211 0009933 149.0381 211.1404 14.37378011245872
